CCSDS_OMM_VERS = 2.0
CREATION_DATE  = 
ORIGINATOR     = 

OBJECT_NAME    = 2025-274B
OBJECT_ID      = 2025-274B
CENTER_NAME    = EARTH
REF_FRAME      = TEME
TIME_SYSTEM    = UTC
MEAN_ELEMENT_THEORY = SGP/SGP4

EPOCH          = 2025-12-23T13:12:22.506336
MEAN_MOTION    = 14.91870607
ECCENTRICITY   = .0011214
INCLINATION    = 97.7401
RA_OF_ASC_NODE = 284.5429
ARG_OF_PERICENTER = 209.9323
MEAN_ANOMALY   = 150.1256

EPHEMERIS_TYPE = 0
CLASSIFICATION_TYPE = U
NORAD_CAT_ID   = 66651
ELEMENT_SET_NO = 999
REV_AT_EPOCH   = 401
BSTAR          = .40812E-3
MEAN_MOTION_DOT = .4073E-4
MEAN_MOTION_DDOT = 0

CCSDS_OMM_VERS = 2.0
CREATION_DATE  = 
ORIGINATOR     = 

OBJECT_NAME    = 2025-274C
OBJECT_ID      = 2025-274C
CENTER_NAME    = EARTH
REF_FRAME      = TEME
TIME_SYSTEM    = UTC
MEAN_ELEMENT_THEORY = SGP/SGP4

EPOCH          = 2025-12-23T14:45:53.476992
MEAN_MOTION    = 14.91960147
ECCENTRICITY   = .001077
INCLINATION    = 97.7406
RA_OF_ASC_NODE = 284.6132
ARG_OF_PERICENTER = 216.5181
MEAN_ANOMALY   = 143.5304

EPHEMERIS_TYPE = 0
CLASSIFICATION_TYPE = U
NORAD_CAT_ID   = 66652
ELEMENT_SET_NO = 999
REV_AT_EPOCH   = 402
BSTAR          = .34347E-3
MEAN_MOTION_DOT = .3426E-4
MEAN_MOTION_DDOT = 0

CCSDS_OMM_VERS = 2.0
CREATION_DATE  = 
ORIGINATOR     = 

OBJECT_NAME    = 2025-274D
OBJECT_ID      = 2025-274D
CENTER_NAME    = EARTH
REF_FRAME      = TEME
TIME_SYSTEM    = UTC
MEAN_ELEMENT_THEORY = SGP/SGP4

EPOCH          = 2025-12-23T17:58:56.199648
MEAN_MOTION    = 14.91954613
ECCENTRICITY   = .0011752
INCLINATION    = 97.7405
RA_OF_ASC_NODE = 284.7445
ARG_OF_PERICENTER = 212.5303
MEAN_ANOMALY   = 147.5192

EPHEMERIS_TYPE = 0
CLASSIFICATION_TYPE = U
NORAD_CAT_ID   = 66653
ELEMENT_SET_NO = 999
REV_AT_EPOCH   = 404
BSTAR          = .2709E-3
MEAN_MOTION_DOT = .269E-4
MEAN_MOTION_DDOT = 0

CCSDS_OMM_VERS = 2.0
CREATION_DATE  = 
ORIGINATOR     = 

OBJECT_NAME    = JACK E
OBJECT_ID      = 2025-274E
CENTER_NAME    = EARTH
REF_FRAME      = TEME
TIME_SYSTEM    = UTC
MEAN_ELEMENT_THEORY = SGP/SGP4

EPOCH          = 2025-12-23T14:41:17.496384
MEAN_MOTION    = 14.92137123
ECCENTRICITY   = .0012281
INCLINATION    = 97.7407
RA_OF_ASC_NODE = 284.6177
ARG_OF_PERICENTER = 214.8879
MEAN_ANOMALY   = 145.1536

EPHEMERIS_TYPE = 0
CLASSIFICATION_TYPE = U
NORAD_CAT_ID   = 66654
ELEMENT_SET_NO = 999
REV_AT_EPOCH   = 402
BSTAR          = .3002E-3
MEAN_MOTION_DOT = .3001E-4
MEAN_MOTION_DDOT = 0

CCSDS_OMM_VERS = 2.0
CREATION_DATE  = 
ORIGINATOR     = 

OBJECT_NAME    = 2025-274F
OBJECT_ID      = 2025-274F
CENTER_NAME    = EARTH
REF_FRAME      = TEME
TIME_SYSTEM    = UTC
MEAN_ELEMENT_THEORY = SGP/SGP4

EPOCH          = 2025-12-23T13:13:39.842112
MEAN_MOTION    = 14.91185756
ECCENTRICITY   = .000407
INCLINATION    = 97.7314
RA_OF_ASC_NODE = 284.5321
ARG_OF_PERICENTER = 349.1487
MEAN_ANOMALY   = 10.9643

EPHEMERIS_TYPE = 0
CLASSIFICATION_TYPE = U
NORAD_CAT_ID   = 66655
ELEMENT_SET_NO = 999
REV_AT_EPOCH   = 401
BSTAR          = .21041E-4
MEAN_MOTION_DOT = .154E-5
MEAN_MOTION_DDOT = 0

CCSDS_OMM_VERS = 2.0
CREATION_DATE  = 
ORIGINATOR     = 

OBJECT_NAME    = 2025-274G
OBJECT_ID      = 2025-274G
CENTER_NAME    = EARTH
REF_FRAME      = TEME
TIME_SYSTEM    = UTC
MEAN_ELEMENT_THEORY = SGP/SGP4

EPOCH          = 2025-12-23T12:59:51.304128
MEAN_MOTION    = 14.92332980
ECCENTRICITY   = .0012858
INCLINATION    = 97.7403
RA_OF_ASC_NODE = 284.5555
ARG_OF_PERICENTER = 217.0051
MEAN_ANOMALY   = 143.0282

EPHEMERIS_TYPE = 0
CLASSIFICATION_TYPE = U
NORAD_CAT_ID   = 66656
ELEMENT_SET_NO = 999
REV_AT_EPOCH   = 401
BSTAR          = .31723E-3
MEAN_MOTION_DOT = .3191E-4
MEAN_MOTION_DDOT = 0

CCSDS_OMM_VERS = 2.0
CREATION_DATE  = 
ORIGINATOR     = 

OBJECT_NAME    = SPIRONE
OBJECT_ID      = 2025-274H
CENTER_NAME    = EARTH
REF_FRAME      = TEME
TIME_SYSTEM    = UTC
MEAN_ELEMENT_THEORY = SGP/SGP4

EPOCH          = 2025-12-23T08:05:35.471040
MEAN_MOTION    = 14.92510020
ECCENTRICITY   = .0010908
INCLINATION    = 97.7400
RA_OF_ASC_NODE = 284.3612
ARG_OF_PERICENTER = 235.5938
MEAN_ANOMALY   = 124.4250

EPHEMERIS_TYPE = 0
CLASSIFICATION_TYPE = U
NORAD_CAT_ID   = 66657
ELEMENT_SET_NO = 999
REV_AT_EPOCH   = 398
BSTAR          = .29728E-3
MEAN_MOTION_DOT = .2999E-4
MEAN_MOTION_DDOT = 0

CCSDS_OMM_VERS = 2.0
CREATION_DATE  = 
ORIGINATOR     = 

OBJECT_NAME    = 2025-274J
OBJECT_ID      = 2025-274J
CENTER_NAME    = EARTH
REF_FRAME      = TEME
TIME_SYSTEM    = UTC
MEAN_ELEMENT_THEORY = SGP/SGP4

EPOCH          = 2025-12-23T17:40:20.144064
MEAN_MOTION    = 14.92685070
ECCENTRICITY   = .0011423
INCLINATION    = 97.7399
RA_OF_ASC_NODE = 284.7611
ARG_OF_PERICENTER = 237.4046
MEAN_ANOMALY   = 122.6071

EPHEMERIS_TYPE = 0
CLASSIFICATION_TYPE = U
NORAD_CAT_ID   = 66658
ELEMENT_SET_NO = 999
REV_AT_EPOCH   = 404
BSTAR          = .3463E-3
MEAN_MOTION_DOT = .3519E-4
MEAN_MOTION_DDOT = 0

CCSDS_OMM_VERS = 2.0
CREATION_DATE  = 
ORIGINATOR     = 

OBJECT_NAME    = JACK K
OBJECT_ID      = 2025-274K
CENTER_NAME    = EARTH
REF_FRAME      = TEME
TIME_SYSTEM    = UTC
MEAN_ELEMENT_THEORY = SGP/SGP4

EPOCH          = 2025-12-23T07:56:23.713728
MEAN_MOTION    = 14.92863071
ECCENTRICITY   = .0012097
INCLINATION    = 97.7399
RA_OF_ASC_NODE = 284.3705
ARG_OF_PERICENTER = 240.8002
MEAN_ANOMALY   = 119.2008

EPHEMERIS_TYPE = 0
CLASSIFICATION_TYPE = U
NORAD_CAT_ID   = 66659
ELEMENT_SET_NO = 999
REV_AT_EPOCH   = 398
BSTAR          = .25814E-3
MEAN_MOTION_DOT = .2621E-4
MEAN_MOTION_DDOT = 0

CCSDS_OMM_VERS = 2.0
CREATION_DATE  = 
ORIGINATOR     = 

OBJECT_NAME    = K-HERO
OBJECT_ID      = 2025-274L
CENTER_NAME    = EARTH
REF_FRAME      = TEME
TIME_SYSTEM    = UTC
MEAN_ELEMENT_THEORY = SGP/SGP4

EPOCH          = 2025-12-23T12:42:03.775968
MEAN_MOTION    = 14.93015300
ECCENTRICITY   = .0012735
INCLINATION    = 97.7405
RA_OF_ASC_NODE = 284.5730
ARG_OF_PERICENTER = 240.8290
MEAN_ANOMALY   = 119.1655

EPHEMERIS_TYPE = 0
CLASSIFICATION_TYPE = U
NORAD_CAT_ID   = 66660
ELEMENT_SET_NO = 999
REV_AT_EPOCH   = 401
BSTAR          = .26153E-3
MEAN_MOTION_DOT = .2667E-4
MEAN_MOTION_DDOT = 0

CCSDS_OMM_VERS = 2.0
CREATION_DATE  = 
ORIGINATOR     = 

OBJECT_NAME    = SNUGLITE-III
OBJECT_ID      = 2025-274M
CENTER_NAME    = EARTH
REF_FRAME      = TEME
TIME_SYSTEM    = UTC
MEAN_ELEMENT_THEORY = SGP/SGP4

EPOCH          = 2025-12-23T12:38:20.827680
MEAN_MOTION    = 14.93148660
ECCENTRICITY   = .0013391
INCLINATION    = 97.7404
RA_OF_ASC_NODE = 284.5754
ARG_OF_PERICENTER = 242.3524
MEAN_ANOMALY   = 117.6337

EPHEMERIS_TYPE = 0
CLASSIFICATION_TYPE = U
NORAD_CAT_ID   = 66661
ELEMENT_SET_NO = 999
REV_AT_EPOCH   = 401
BSTAR          = .22881E-3
MEAN_MOTION_DOT = .2334E-4
MEAN_MOTION_DDOT = 0

CCSDS_OMM_VERS = 2.0
CREATION_DATE  = 
ORIGINATOR     = 

OBJECT_NAME    = 2025-274N
OBJECT_ID      = 2025-274N
CENTER_NAME    = EARTH
REF_FRAME      = TEME
TIME_SYSTEM    = UTC
MEAN_ELEMENT_THEORY = SGP/SGP4

EPOCH          = 2025-12-23T17:26:22.134912
MEAN_MOTION    = 14.93205147
ECCENTRICITY   = .0013841
INCLINATION    = 97.7405
RA_OF_ASC_NODE = 284.7751
ARG_OF_PERICENTER = 241.2847
MEAN_ANOMALY   = 118.6982

EPHEMERIS_TYPE = 0
CLASSIFICATION_TYPE = U
NORAD_CAT_ID   = 66662
ELEMENT_SET_NO = 999
REV_AT_EPOCH   = 404
BSTAR          = .23729E-3
MEAN_MOTION_DOT = .2426E-4
MEAN_MOTION_DDOT = 0

