2025-274B               
1 66651U 25274B   25357.55026049  .00004073  00000+0  40812-3 0  9998
2 66651  97.7401 284.5429 0011214 209.9323 150.1256 14.91870607  4013
2025-274C               
1 66652U 25274C   25357.61520228  .00003426  00000+0  34347-3 0  9991
2 66652  97.7406 284.6132 0010770 216.5181 143.5304 14.91960147  4023
2025-274D               
1 66653U 25274D   25357.74926157  .00002690  00000+0  27090-3 0  9996
2 66653  97.7405 284.7445 0011752 212.5303 147.5192 14.91954613  4046
JACK E                  
1 66654U 25274E   25357.61200806  .00003001  00000+0  30020-3 0  9993
2 66654  97.7407 284.6177 0012281 214.8879 145.1536 14.92137123  4025
2025-274F               
1 66655U 25274F   25357.55115558  .00000154  00000+0  21041-4 0  9996
2 66655  97.7314 284.5321 0004070 349.1487  10.9643 14.91185756  4018
2025-274G               
1 66656U 25274G   25357.54156602  .00003191  00000+0  31723-3 0  9992
2 66656  97.7403 284.5555 0012858 217.0051 143.0282 14.92332980  4011
SPIRONE                 
1 66657U 25274H   25357.33721610  .00002999  00000+0  29728-3 0  9994
2 66657  97.7400 284.3612 0010908 235.5938 124.4250 14.92510020  3980
2025-274J               
1 66658U 25274J   25357.73634426  .00003519  00000+0  34630-3 0  9994
2 66658  97.7399 284.7611 0011423 237.4046 122.6071 14.92685070  4042
JACK K                  
1 66659U 25274K   25357.33083002  .00002621  00000+0  25814-3 0  9996
2 66659  97.7399 284.3705 0012097 240.8002 119.2008 14.92863071  3984
K-HERO                  
1 66660U 25274L   25357.52921037  .00002667  00000+0  26153-3 0  9995
2 66660  97.7405 284.5730 0012735 240.8290 119.1655 14.93015300  4019
SNUGLITE-III            
1 66661U 25274M   25357.52662995  .00002334  00000+0  22881-3 0  9996
2 66661  97.7404 284.5754 0013391 242.3524 117.6337 14.93148660  4017
2025-274N               
1 66662U 25274N   25357.72664508  .00002426  00000+0  23729-3 0  9995
2 66662  97.7405 284.7751 0013841 241.2847 118.6982 14.93205147  4048
